#cP2018  1 18  0  0  0.00000000      96 ORBIT IGS14 HLM  IGS
## 1984 345600.00000000   900.00000000 58136 0.0000000000000
+   32   G01G02G03G04G05G06G07G08G09G10G11G12G13G14G15G16G17
+        G18G19G20G21G22G23G24G25G26G27G28G29G30G31G32  0  0
+          0  0  0  0  0  0  0  0  0  0  0  0  0  0  0  0  0
+          0  0  0  0  0  0  0  0  0  0  0  0  0  0  0  0  0
+          0  0  0  0  0  0  0  0  0  0  0  0  0  0  0  0  0
++         2  2  2  0  2  2  2  2  2  2  2  2  2  2  2  3  2
++         2  2  2  2  2  2  2  2  2  2  2  2  2  2  2  0  0
++         0  0  0  0  0  0  0  0  0  0  0  0  0  0  0  0  0
++         0  0  0  0  0  0  0  0  0  0  0  0  0  0  0  0  0
++         0  0  0  0  0  0  0  0  0  0  0  0  0  0  0  0  0
%c G  cc GPS ccc cccc cccc cccc cccc ccccc ccccc ccccc ccccc
%c cc cc ccc ccc cccc cccc cccc cccc ccccc ccccc ccccc ccccc
%f  1.2500000  1.025000000  0.00000000000  0.000000000000000
%f  0.0000000  0.000000000  0.00000000000  0.000000000000000
%i    0    0    0    0      0      0      0      0         0
%i    0    0    0    0      0      0      0      0         0
/* FINAL ORBIT COMBINATION FROM WEIGHTED AVERAGE OF:        
/* cod emr esa gfz grg jpl mit ngs sio                      
/* REFERENCED TO IGS TIME (IGST) AND TO WEIGHTED MEAN POLE: 
/* PCV:IGS14_1984 OL/AL:FES2004  NONE     Y  ORB:CMB CLK:CMB
*  2018  1 18 13 30  0.00000000
PG01 -12251.825761  21998.037532  -8117.431995    -24.162739  7  2  4 110       
PG02  20196.987138 -11022.185664 -12471.307431    224.875772 11  7  8  96       
PG03  -6496.012833  14069.647795 -21584.773650     -7.716884  5     5 111       
PG04 -24940.939052  -8708.216267  -4206.996525 999999.999999
PG05  24027.482162  -3530.864509  10890.320434    -16.648425  8  7  4  73       
PG06  17430.577402    946.487527 -19989.790506    414.811366  8  6  6  82       
PG07   1615.000289  18203.517377  19316.654091    249.765999  5  7  4  82       
PG08  -8190.684187  16529.812386  19118.445445    -88.083596  2     3  57       
PG09   7976.297464  25308.716487  -1059.957371    494.074740  6  6  5  97       
PG10 -22563.290283 -10953.262727   8991.194735    147.799246  7  6  3  56       
PG11  -8527.905126  25209.478529    462.570552   -734.311831  6  3  5 107       
PG12   9508.072811 -12257.473872 -21698.842768    354.861472  9  6  5  99       
PG13  13293.993053  -8233.896617  21350.786871    -95.394852  2  3  4 104       
PG14 -15947.521088  -9059.693659 -18993.188939    -92.595050  8  5  7  91       
PG15   6896.473233 -18024.817500  17877.917049   -357.341997  6  6  5 110       
PG16 -23955.310387   1109.308686  11727.569508     33.847757 12  8  8  95       
PG17  14244.659832  17815.446576 -13338.226221   -129.989544  6  7  5  83       
PG18 -13261.763699 -15449.440734  17739.663871    633.515304  9  7  4  74       
PG19  15561.107945  10115.260503 -19197.971777   -462.928092  9  6  6  62       
PG20   8408.523719 -14542.558555  20418.908159    498.604316  3  5  5  85       
PG21  -4950.739650 -17325.032599  20303.691782   -440.442728  3  4  2 152       
PG22 -14319.711501  12057.480700 -18609.102499   -261.117076  6  5  6 118       
PG23   -755.765682  23523.048455 -11619.863991   -219.092122  6  4  3 116       
PG24  13655.385877 -22115.430108  -4781.828835    -44.939871  5  4  4  35       
PG25  -5316.947930 -15635.204544 -21015.725002   -524.338841  8  6  7 101       
PG26 -26290.456625  -4046.437261   1221.410092   -282.960818  9  6  7  97       
PG27 -14550.161020   3252.722953  21930.322709    363.179522  6  5  5  71       
PG28  19076.541808  14176.962570  12444.508789    680.900314  6  6  6  82       
PG29  -3500.366244 -25862.288764  -4994.320349    509.368403  6  5  5 103       
PG30   9679.346290  12255.515418  21479.231210    111.473699  5  5  3  81       
PG31 -18322.941260   -100.381542 -19325.054805    147.793731  4  6  5 107       
PG32 -15875.528340 -16163.568511 -13895.348875   -532.951526  5  6  6 114       
*  2018  1 18 13 45  0.00000000
PG01 -12921.818808  22428.948715  -5367.332580    -24.164449  8  3  4  58       
PG02  19417.643799  -9548.192588 -14665.524496    224.866762 11  7  8  92       
PG03  -8886.534953  13607.449736 -21017.154622     -7.710679  4     5  97       
PG04 -24312.516776  -8755.235464  -6990.876056 999999.999999
PG05  25089.158924  -3118.465895   8370.502923    -16.647430  9  7  5  80       
PG06  15997.838839   2808.517644 -20985.309930    414.811488  8  6  6 104       
PG07    127.424760  19695.528512  17808.015835    249.760915  5  8  4  80       
PG08  -9094.925621  14468.050946  20356.300081    -88.084784  2     3  47       
PG09   7616.629896  25147.918436  -3880.887517    494.077642  5  6  4  92       
PG10 -21379.386946 -10972.545387  11502.995310    147.804158  7  6  3  75       
PG11  -8844.091914  24839.676525   3182.478446   -734.313089  7  4  5  32       
PG12  11827.712139 -11655.624378 -20849.711549    354.859517  9  6  6  99       
PG13  13909.512753  -5821.754317  21745.714068    -95.394752  2  4  3  99       
PG14 -16402.244860 -11147.485314 -17471.007130    -92.595864  8  5  7  91       
PG15   7985.367308 -16123.169949  19212.120514   -357.342182  6  6  5 117       
PG16 -25085.292913    687.556017   9184.224977     33.847119 12  9  8 108       
PG17  14520.384704  19234.551135 -10933.434038   -129.987488  5  7  5  79       
PG18 -11247.660612 -15376.720531  19170.362410    633.515412  8  7  4  60       
PG19  15973.813801  12132.647785 -17581.393480   -462.925965  8  6  6  84       
PG20  10722.085024 -14275.412247  19505.959764    498.604915  3  5  4  86       
PG21  -3583.720866 -18933.374808  19063.886309   -440.438085  2  4  3 153       
PG22 -16383.791712  11625.600208 -17144.025062   -261.128820  7  5  6  99       
PG23  -1559.952720  22207.241202 -13897.083085   -219.092031  6  4  3  85       
PG24  14142.892434 -22219.781789  -1981.013611    -44.940629  5  4  3  44       
PG25  -2942.009323 -15264.943927 -21727.237990   -524.344402  8  7  6  96       
PG26 -26228.924213  -4296.104246  -1620.023251   -282.948277  8  6  7 101       
PG27 -15411.473866    909.894652  21583.498641    363.181343  6  5  4  81       
PG28  17631.339376  13936.195594  14755.411770    680.903410  6  5  6  85       
PG29  -3113.915351 -25219.906864  -7768.399954    509.363845  6  6  4  83       
PG30   7985.775585  14014.292384  21083.522208    111.470797  4  4  3  80       
PG31 -16877.706549  -1859.257280 -20476.650249    147.791453  4  7  5  66       
PG32 -16194.715908 -17604.138402 -11595.738482   -532.951766  5  6  6  90       
*  2018  1 18 14  0  0.00000000
PG01 -13379.466550  22638.476590  -2523.560189    -24.166262  8  4  5  90       
PG02  18580.280242  -7836.482962 -16595.001977    224.857514 10  6  8  64       
PG03 -11214.241151  13279.666704 -20088.209619     -7.704472  4  1  5 107       
PG04 -23385.161033  -8794.815451  -9657.244574 999999.999999
PG05  25878.748014  -2787.839592   5707.761181    -16.646597  9  7  5  71       
PG06  14612.130142   4819.352274 -21618.784752    414.811588  7  6  6  82       
PG07  -1170.370485  21115.695292  15992.700989    249.755845  5  8  5  76       
PG08 -10156.717700  12348.994431  21244.609669    -88.085857  2     3  16       
PG09   7119.679323  24718.284036  -6635.031566    494.080561  5  6  5  66       
PG10 -19927.153051 -11024.944612  13818.636063    147.809008  6  6  3  46       
PG11  -9113.051391  24187.074711   5847.550000   -734.313429  7  5  5  94       
PG12  14065.786735 -11204.789947 -19645.608483    354.857906  9  6  6  88       
PG13  14658.770177  -3422.946052  21762.308523    -95.394792  2  4  3 101       
PG14 -16901.393341 -13025.654614 -15643.703100    -92.596232  8  5  7  60       
PG15   9221.406784 -14158.288810  20206.690327   -357.341704  7  6  4 118       
PG16 -25946.163083    387.958363   6485.647462     33.846277 11  9  8 112       
PG17  14773.300907  20366.630873  -8338.387114   -129.984689  4  7  5  82       
PG18  -9094.257667 -15392.595750  20287.940438    633.515296  7  7  4  63       
PG19  16434.777418  13938.384128 -15666.109653   -462.923542  7  6  5  73       
PG20  12922.550702 -14117.134008  18252.890306    498.605294  4  5  4  93       
PG21  -2381.748260 -20485.063529  17515.425355   -440.434793  3  3  3 155       
PG22 -18281.023523  11300.349958 -15378.874475   -261.140377  7  6  5 105       
PG23  -2528.081900  20706.820923 -15926.400629   -219.092073  6  4  4 117       
PG24  14445.611607 -22082.344952    854.454652    -44.942193  4  4  3  83       
PG25   -489.451516 -15019.220618 -22071.383508   -524.349952  8  7  6  96       
PG26 -25862.711003  -4518.890697  -4433.781504   -282.935810  7  6  8  42       
PG27 -16373.744025  -1324.902477  20864.303795    363.183146  6  5  4  67       
PG28  15939.631561  13730.018113  16821.485470    680.906560  7  5  6  81       
PG29  -2585.392905 -24312.155093 -10408.959746    509.358733  7  6  3  89       
PG30   6422.092989  15805.605068  20324.452291    111.467882  3  4  3  74       
PG31 -15457.658344  -3782.533454 -21277.499631    147.789303  5  7  5  94       
PG32 -16477.071829 -18778.330657  -9097.060196   -532.952058  6  5  6 105       
EOF
